ION SCV-004             
1 50993U 22002K   26068.68892644  .00006538  00000+0  23198-3 0  9998
2 50993  97.2961 128.2294 0007216   1.6783 358.4480 15.29369331230088
STARLINK-35774          
1 66283U 25247U   26068.63578590  .00024267  00000+0  82924-3 0  9998
2 66283  53.1571 191.8153 0001097  84.7187 275.3939 15.30182502 21029
